start=new Date('2022-02-17T00:00:00.000Z').valueOf();
sats=[{"INCLINATION":"53.0542","LAUNCH_DATE":"2020-10-06","TIME_SYSTEM":"UTC","TLE_LINE2":"2 46583  53.0542 350.2857 0001346  67.2082 292.9049 15.06384116 76100","GP_ID":"196092938","COUNTRY_CODE":"US","SITE":"AFETR","NORAD_CAT_ID":"46583","ECCENTRICITY":"0.00013460","OBJECT_NAME":"STARLINK-1729","BSTAR":"0.00015511000000","FILE":"3301890","SEMIMAJOR_AXIS":"6925.397","RA_OF_ASC_NODE":"350.2857","MEAN_ELEMENT_THEORY":"SGP4","OBJECT_ID":"2020-070BD","ARG_OF_PERICENTER":"67.2082","PERIOD":"95.593","CLASSIFICATION_TYPE":"U","MEAN_ANOMALY":"292.9049","APOAPSIS":"548.194","DECAY_DATE":null,"ELEMENT_SET_NO":"999","EPOCH":"2022-02-16T12:44:13.294752","OBJECT_TYPE":"PAYLOAD","REF_FRAME":"TEME","EPHEMERIS_TYPE":"0","CENTER_NAME":"EARTH","RCS_SIZE":"LARGE","MEAN_MOTION":"15.06384116","REV_AT_EPOCH":"7610","PERIAPSIS":"546.330","MEAN_MOTION_DOT":"0.00002029","MEAN_MOTION_DDOT":"0.0000000000000","TLE_LINE1":"1 46583U 20070BD  22047.53070943  .00002029  00000-0  15511-3 0  9990"},{"ARG_OF_PERICENTER":"72.6055","OBJECT_ID":"2020-070BE","RA_OF_ASC_NODE":"328.4092","MEAN_ELEMENT_THEORY":"SGP4","SEMIMAJOR_AXIS":"6925.351","FILE":"3302660","BSTAR":"0.00031425000000","OBJECT_NAME":"STARLINK-1732","ECCENTRICITY":"0.00014870","NORAD_CAT_ID":"46584","SITE":"AFETR","COUNTRY_CODE":"US","GP_ID":"196131532","LAUNCH_DATE":"2020-10-06","TIME_SYSTEM":"UTC","TLE_LINE2":"2 46584  53.0567 328.4092 0001487  72.6055 287.5096 15.06399340 76457","INCLINATION":"53.0567","TLE_LINE1":"1 46584U 20070BE  22047.94906200  .00004402  00000-0  31425-3 0  9999","MEAN_MOTION_DDOT":"0.0000000000000","PERIAPSIS":"546.186","MEAN_MOTION_DOT":"0.00004402","REV_AT_EPOCH":"7645","RCS_SIZE":"LARGE","MEAN_MOTION":"15.06399340","CENTER_NAME":"EARTH","EPHEMERIS_TYPE":"0","OBJECT_TYPE":"PAYLOAD","REF_FRAME":"TEME","EPOCH":"2022-02-16T22:46:38.956800","ELEMENT_SET_NO":"999","APOAPSIS":"548.245","DECAY_DATE":null,"MEAN_ANOMALY":"287.5096","PERIOD":"95.592","CLASSIFICATION_TYPE":"U"},{"SEMIMAJOR_AXIS":"6925.349","FILE":"3302285","BSTAR":"0.00039493000000","OBJECT_ID":"2020-070BF","ARG_OF_PERICENTER":"70.3713","MEAN_ELEMENT_THEORY":"SGP4","RA_OF_ASC_NODE":"330.4181","NORAD_CAT_ID":"46585","ECCENTRICITY":"0.00015790","SITE":"AFETR","COUNTRY_CODE":"US","OBJECT_NAME":"STARLINK-1736","TLE_LINE2":"2 46585  53.0547 330.4181 0001579  70.3713 289.7446 15.06399829 76080","TIME_SYSTEM":"UTC","LAUNCH_DATE":"2020-10-06","INCLINATION":"53.0547","GP_ID":"196101170","MEAN_MOTION_DDOT":"0.0000000000000","MEAN_MOTION_DOT":"0.00005606","PERIAPSIS":"546.121","TLE_LINE1":"1 46585U 20070BF  22047.50307813  .00005606  00000-0  39493-3 0  9997","CENTER_NAME":"EARTH","EPHEMERIS_TYPE":"0","REV_AT_EPOCH":"7608","RCS_SIZE":"LARGE","MEAN_MOTION":"15.06399829","ELEMENT_SET_NO":"999","DECAY_DATE":null,"APOAPSIS":"548.308","REF_FRAME":"TEME","OBJECT_TYPE":"PAYLOAD","EPOCH":"2022-02-16T12:04:25.950432","CLASSIFICATION_TYPE":"U","PERIOD":"95.592","MEAN_ANOMALY":"289.7446"},{"PERIOD":"95.592","CLASSIFICATION_TYPE":"U","MEAN_ANOMALY":"282.4751","APOAPSIS":"548.319","DECAY_DATE":null,"ELEMENT_SET_NO":"999","EPOCH":"2022-02-16T22:57:15.474240","OBJECT_TYPE":"PAYLOAD","REF_FRAME":"TEME","EPHEMERIS_TYPE":"0","CENTER_NAME":"EARTH","RCS_SIZE":"LARGE","MEAN_MOTION":"15.06400046","REV_AT_EPOCH":"7645","PERIAPSIS":"546.107","MEAN_MOTION_DOT":"-0.00000538","MEAN_MOTION_DDOT":"0.0000000000000","TLE_LINE1":"1 46586U 20070BG  22047.95642910 -.00000538  00000-0 -17205-4 0  9996","INCLINATION":"53.0555","LAUNCH_DATE":"2020-10-06","TIME_SYSTEM":"UTC","TLE_LINE2":"2 46586  53.0555 328.3865 0001597  77.6416 282.4751 15.06400046 76459","GP_ID":"196132534","COUNTRY_CODE":"US","SITE":"AFETR","NORAD_CAT_ID":"46586","ECCENTRICITY":"0.00015970","OBJECT_NAME":"STARLINK-1737","BSTAR":"-0.00001720500000","FILE":"3302660","SEMIMAJOR_AXIS":"6925.348","RA_OF_ASC_NODE":"328.3865","MEAN_ELEMENT_THEORY":"SGP4","OBJECT_ID":"2020-070BG","ARG_OF_PERICENTER":"77.6416"},{"TLE_LINE1":"1 46588U 20070BJ  22047.93800553  .00001000  00000-0  86033-4 0  9993","PERIAPSIS":"546.059","MEAN_MOTION_DOT":"0.00001000","MEAN_MOTION_DDOT":"0.0000000000000","RCS_SIZE":"LARGE","MEAN_MOTION":"15.06402895","REV_AT_EPOCH":"7645","EPHEMERIS_TYPE":"0","CENTER_NAME":"EARTH","EPOCH":"2022-02-16T22:30:43.677792","OBJECT_TYPE":"PAYLOAD","REF_FRAME":"TEME","APOAPSIS":"548.350","DECAY_DATE":null,"ELEMENT_SET_NO":"999","MEAN_ANOMALY":"296.0028","PERIOD":"95.592","CLASSIFICATION_TYPE":"U","RA_OF_ASC_NODE":"328.4584","MEAN_ELEMENT_THEORY":"SGP4","OBJECT_ID":"2020-070BJ","ARG_OF_PERICENTER":"64.1132","BSTAR":"0.00008603300000","FILE":"3302660","SEMIMAJOR_AXIS":"6925.340","OBJECT_NAME":"STARLINK-1746","COUNTRY_CODE":"US","SITE":"AFETR","NORAD_CAT_ID":"46588","ECCENTRICITY":"0.00016540","GP_ID":"196131282","INCLINATION":"53.0570","TIME_SYSTEM":"UTC","LAUNCH_DATE":"2020-10-06","TLE_LINE2":"2 46588  53.0570 328.4584 0001654  64.1132 296.0028 15.06402895 76459"},{"OBJECT_ID":"2020-070BK","ARG_OF_PERICENTER":"73.1574","RA_OF_ASC_NODE":"328.4922","MEAN_ELEMENT_THEORY":"SGP4","SEMIMAJOR_AXIS":"6925.406","FILE":"3302660","BSTAR":"-0.00001753300000","OBJECT_NAME":"STARLINK-1749","NORAD_CAT_ID":"46589","ECCENTRICITY":"0.00014030","COUNTRY_CODE":"US","SITE":"AFETR","GP_ID":"196131033","TIME_SYSTEM":"UTC","LAUNCH_DATE":"2020-10-06","TLE_LINE2":"2 46589  53.0555 328.4922 0001403  73.1574 286.9569 15.06381393 76447","INCLINATION":"53.0555","TLE_LINE1":"1 46589U 20070BK  22047.93061871 -.00000542  00000-0 -17533-4 0  9997","MEAN_MOTION_DDOT":"0.0000000000000","PERIAPSIS":"546.299","MEAN_MOTION_DOT":"-0.00000542","REV_AT_EPOCH":"7644","MEAN_MOTION":"15.06381393","RCS_SIZE":"LARGE","CENTER_NAME":"EARTH","EPHEMERIS_TYPE":"0","OBJECT_TYPE":"PAYLOAD","REF_FRAME":"TEME","EPOCH":"2022-02-16T22:20:05.456544","ELEMENT_SET_NO":"999","APOAPSIS":"548.242","DECAY_DATE":null,"MEAN_ANOMALY":"286.9569","PERIOD":"95.593","CLASSIFICATION_TYPE":"U"},{"MEAN_MOTION_DOT":"0.00861840","PERIAPSIS":"357.521","MEAN_MOTION_DDOT":"0.0000000000000","TLE_LINE1":"1 46590U 20070BL  22047.92412886  .00861840  00000-0  63882-2 0  9994","EPHEMERIS_TYPE":"0","CENTER_NAME":"EARTH","RCS_SIZE":"LARGE","MEAN_MOTION":"15.70167974","REV_AT_EPOCH":"7796","DECAY_DATE":null,"APOAPSIS":"359.316","ELEMENT_SET_NO":"999","EPOCH":"2022-02-16T22:10:44.733504","REF_FRAME":"TEME","OBJECT_TYPE":"PAYLOAD","CLASSIFICATION_TYPE":"U","PERIOD":"91.710","MEAN_ANOMALY":"310.5299","FILE":"3302660","BSTAR":"0.00638820000000","SEMIMAJOR_AXIS":"6736.554","MEAN_ELEMENT_THEORY":"SGP4","RA_OF_ASC_NODE":"220.5637","OBJECT_ID":"2020-070BL","ARG_OF_PERICENTER":"49.5834","SITE":"AFETR","COUNTRY_CODE":"US","NORAD_CAT_ID":"46590","ECCENTRICITY":"0.00013320","OBJECT_NAME":"STARLINK-1754","INCLINATION":"53.0542","TLE_LINE2":"2 46590  53.0542 220.5637 0001332  49.5834 310.5299 15.70167974 77967","LAUNCH_DATE":"2020-10-06","TIME_SYSTEM":"UTC","GP_ID":"196132284"},{"GP_ID":"196132035","INCLINATION":"53.0550","LAUNCH_DATE":"2020-10-06","TIME_SYSTEM":"UTC","TLE_LINE2":"2 46591  53.0550 328.5513 0001424  58.1813 301.9314 15.06394284 75509","OBJECT_NAME":"STARLINK-1755","COUNTRY_CODE":"US","SITE":"AFETR","NORAD_CAT_ID":"46591","ECCENTRICITY":"0.00014240","RA_OF_ASC_NODE":"328.5513","MEAN_ELEMENT_THEORY":"SGP4","OBJECT_ID":"2020-070BM","ARG_OF_PERICENTER":"58.1813","BSTAR":"0.00017533000000","FILE":"3302660","SEMIMAJOR_AXIS":"6925.366","MEAN_ANOMALY":"301.9314","PERIOD":"95.593","CLASSIFICATION_TYPE":"U","EPOCH":"2022-02-16T22:04:11.544384","OBJECT_TYPE":"PAYLOAD","REF_FRAME":"TEME","APOAPSIS":"548.217","DECAY_DATE":null,"ELEMENT_SET_NO":"999","MEAN_MOTION":"15.06394284","RCS_SIZE":"LARGE","REV_AT_EPOCH":"7550","EPHEMERIS_TYPE":"0","CENTER_NAME":"EARTH","TLE_LINE1":"1 46591U 20070BM  22047.91957806  .00002331  00000-0  17533-3 0  9995","PERIAPSIS":"546.245","MEAN_MOTION_DOT":"0.00002331","MEAN_MOTION_DDOT":"0.0000000000000"},{"DECAY_DATE":null,"APOAPSIS":"548.472","ELEMENT_SET_NO":"999","EPOCH":"2022-02-16T17:25:29.894880","REF_FRAME":"TEME","OBJECT_TYPE":"PAYLOAD","CLASSIFICATION_TYPE":"U","PERIOD":"95.593","MEAN_ANOMALY":"306.7515","MEAN_MOTION_DOT":"0.00001512","PERIAPSIS":"546.010","MEAN_MOTION_DDOT":"0.0000000000000","TLE_LINE1":"1 46671U 20073B   22047.72604045  .00001512  00000-0  12041-3 0  9999","EPHEMERIS_TYPE":"0","CENTER_NAME":"EARTH","RCS_SIZE":"LARGE","MEAN_MOTION":"15.06391083","REV_AT_EPOCH":"7369","INCLINATION":"53.0553","TLE_LINE2":"2 46671  53.0553  59.4137 0001778  53.3637 306.7515 15.06391083 73694","LAUNCH_DATE":"2020-10-18","TIME_SYSTEM":"UTC","GP_ID":"196132292","FILE":"3302660","BSTAR":"0.00012041000000","SEMIMAJOR_AXIS":"6925.376","MEAN_ELEMENT_THEORY":"SGP4","RA_OF_ASC_NODE":"59.4137","ARG_OF_PERICENTER":"53.3637","OBJECT_ID":"2020-073B","SITE":"AFETR","COUNTRY_CODE":"US","ECCENTRICITY":"0.00017780","NORAD_CAT_ID":"46671","OBJECT_NAME":"STARLINK-1715"},{"MEAN_MOTION":"15.06390122","RCS_SIZE":"LARGE","REV_AT_EPOCH":"7372","EPHEMERIS_TYPE":"0","CENTER_NAME":"EARTH","TLE_LINE1":"1 46672U 20073C   22047.43440877 -.00001042  00000-0 -51053-4 0  9996","PERIAPSIS":"546.123","MEAN_MOTION_DOT":"-0.00001042","MEAN_MOTION_DDOT":"0.0000000000000","MEAN_ANOMALY":"298.6897","PERIOD":"95.593","CLASSIFICATION_TYPE":"U","EPOCH":"2022-02-16T10:25:32.917728","OBJECT_TYPE":"PAYLOAD","REF_FRAME":"TEME","APOAPSIS":"548.364","DECAY_DATE":null,"ELEMENT_SET_NO":"999","OBJECT_NAME":"STARLINK-1716","SITE":"AFETR","COUNTRY_CODE":"US","NORAD_CAT_ID":"46672","ECCENTRICITY":"0.00016180","RA_OF_ASC_NODE":"55.7102","MEAN_ELEMENT_THEORY":"SGP4","ARG_OF_PERICENTER":"61.4255","OBJECT_ID":"2020-073C","FILE":"3301890","BSTAR":"-0.00005105300000","SEMIMAJOR_AXIS":"6925.379","GP_ID":"196094195","INCLINATION":"53.0546","LAUNCH_DATE":"2020-10-18","TIME_SYSTEM":"UTC","TLE_LINE2":"2 46672  53.0546  55.7102 0001618  61.4255 298.6897 15.06390122 73726"}];
